GLOBALSTAR M094 [+]     
1 39074U 13005C   23310.99787951 -.00000075  00000+0  15934-3 0  9993
2 39074  51.9939 172.9816 0001173  78.9479 281.1520 12.62269584498118
GLOBALSTAR M096 [+]     
1 39075U 13005D   23310.93189583 -.00000081  00000+0  12869-3 0  9996
2 39075  52.0071 221.2368 0001142  62.6133 297.4850 12.62265863497000
GLOBALSTAR M078 [+]     
1 39076U 13005E   23310.27185018 -.00000077  00000+0  15106-3 0  9995
2 39076  51.9881 308.5558 0000868 339.6438  20.4394 12.62262910495541
GLOBALSTAR M095 [+]     
1 39077U 13005F   23310.45679180 -.00000074  00000+0  16746-3 0  9992
2 39077  51.9808 305.4830 0000901  17.1708 342.9189 12.62270453495428
GLOBALSTAR M087 [+]     
1 52888U 22064A   23310.61139514 -.00000068  00000+0  11527-3 0  9997
2 52888  51.9760 267.9684 0009473 153.5538 206.5847 13.37557164 67609
